[{"OBJECT_NAME":"LEAP-1","OBJECT_ID":"2025-188G","EPOCH":"2026-03-09T22:53:24.912384","MEAN_MOTION":14.91029784,"ECCENTRICITY":0.00036947,"INCLINATION":97.7428,"RA_OF_ASC_NODE":145.2206,"ARG_OF_PERICENTER":154.4312,"MEAN_ANOMALY":205.709,"EPHEMERIS_TYPE":0,"CLASSIFICATION_TYPE":"U","NORAD_CAT_ID":65321,"ELEMENT_SET_NO":999,"REV_AT_EPOCH":2906,"BSTAR":0.00043957921,"MEAN_MOTION_DOT":4.295e-5,"MEAN_MOTION_DDOT":0},{"OBJECT_NAME":"CZ-4C R\/B","OBJECT_ID":"2022-039B","EPOCH":"2026-03-09T15:51:32.485824","MEAN_MOTION":15.03008334,"ECCENTRICITY":0.0113659,"INCLINATION":98.2525,"RA_OF_ASC_NODE":105.9247,"ARG_OF_PERICENTER":45.8852,"MEAN_ANOMALY":315.1654,"EPHEMERIS_TYPE":0,"CLASSIFICATION_TYPE":"U","NORAD_CAT_ID":52258,"ELEMENT_SET_NO":999,"REV_AT_EPOCH":21291,"BSTAR":0.00022979194,"MEAN_MOTION_DOT":3.483e-5,"MEAN_MOTION_DDOT":0}]
